start=new Date('2022-08-16T00:00:00.000Z').valueOf();
sats=[{"TLE_LINE2":"2 52267  53.2157 192.9965 0002378  56.5884 137.0787 15.08833470  1300","APOAPSIS":"541.410","COUNTRY_CODE":"US","MEAN_MOTION_DOT":"0.00011864","EPOCH":"2022-08-15T22:00:00.999936","MEAN_MOTION":"15.08833470","ECCENTRICITY":"0.00023780","OBJECT_NAME":"STARLINK-3748","PERIAPSIS":"538.120","REF_FRAME":"TEME","FILE":"3537378","INCLINATION":"53.2157","RCS_SIZE":"LARGE","NORAD_CAT_ID":"52267","SEMIMAJOR_AXIS":"6917.900","OBJECT_TYPE":"PAYLOAD","BSTAR":"0.00076241000000","OBJECT_ID":"2022-041G","MEAN_ELEMENT_THEORY":"SGP4","GP_ID":"210301701","CLASSIFICATION_TYPE":"U","ARG_OF_PERICENTER":"56.5884","PERIOD":"95.438","RA_OF_ASC_NODE":"192.9965","TIME_SYSTEM":"UTC","ELEMENT_SET_NO":"999","TLE_LINE1":"1 52267U 22041G   22227.91667824  .00011864  00000-0  76241-3 0  9992","REV_AT_EPOCH":"130","EPHEMERIS_TYPE":"0","MEAN_ANOMALY":"137.0787","SITE":"AFETR","CENTER_NAME":"EARTH","LAUNCH_DATE":"2022-04-21","MEAN_MOTION_DDOT":"0.0000000000000","DECAY_DATE":null},{"EPHEMERIS_TYPE":"0","REV_AT_EPOCH":"130","TLE_LINE1":"1 52268U 22041H   22227.91667824  .00014359  00000-0  91865-3 0  9994","DECAY_DATE":null,"MEAN_MOTION_DDOT":"0.0000000000000","CENTER_NAME":"EARTH","LAUNCH_DATE":"2022-04-21","SITE":"AFETR","MEAN_ANOMALY":"198.6115","CLASSIFICATION_TYPE":"U","GP_ID":"210301710","MEAN_ELEMENT_THEORY":"SGP4","OBJECT_ID":"2022-041H","BSTAR":"0.00091865000000","OBJECT_TYPE":"PAYLOAD","SEMIMAJOR_AXIS":"6917.904","ELEMENT_SET_NO":"999","TIME_SYSTEM":"UTC","RA_OF_ASC_NODE":"192.9964","PERIOD":"95.438","ARG_OF_PERICENTER":"55.0453","FILE":"3537378","REF_FRAME":"TEME","NORAD_CAT_ID":"52268","RCS_SIZE":"LARGE","INCLINATION":"53.2178","MEAN_MOTION_DOT":"0.00014359","COUNTRY_CODE":"US","APOAPSIS":"541.219","TLE_LINE2":"2 52268  53.2178 192.9964 0002096  55.0453 198.6115 15.08832227  1303","PERIAPSIS":"538.319","OBJECT_NAME":"STARLINK-3746","ECCENTRICITY":"0.00020960","MEAN_MOTION":"15.08832227","EPOCH":"2022-08-15T22:00:00.999936"},{"ELEMENT_SET_NO":"999","TIME_SYSTEM":"UTC","RA_OF_ASC_NODE":"192.9966","PERIOD":"95.438","ARG_OF_PERICENTER":"61.0491","CLASSIFICATION_TYPE":"U","MEAN_ELEMENT_THEORY":"SGP4","GP_ID":"210301984","OBJECT_ID":"2022-041J","SEMIMAJOR_AXIS":"6917.892","OBJECT_TYPE":"PAYLOAD","BSTAR":"0.00079525000000","DECAY_DATE":null,"MEAN_MOTION_DDOT":"0.0000000000000","CENTER_NAME":"EARTH","LAUNCH_DATE":"2022-04-21","SITE":"AFETR","MEAN_ANOMALY":"152.5653","EPHEMERIS_TYPE":"0","REV_AT_EPOCH":"130","TLE_LINE1":"1 52269U 22041J   22227.91667824  .00012390  00000-0  79525-3 0  9997","PERIAPSIS":"538.446","OBJECT_NAME":"STARLINK-3791","ECCENTRICITY":"0.00018960","EPOCH":"2022-08-15T22:00:00.999936","MEAN_MOTION":"15.08836123","MEAN_MOTION_DOT":"0.00012390","COUNTRY_CODE":"US","APOAPSIS":"541.069","TLE_LINE2":"2 52269  53.2174 192.9966 0001896  61.0491 152.5653 15.08836123  1303","NORAD_CAT_ID":"52269","RCS_SIZE":"LARGE","INCLINATION":"53.2174","FILE":"3537378","REF_FRAME":"TEME"},{"APOAPSIS":"541.482","TLE_LINE2":"2 52270  53.2189 192.9916 0002486  56.3537 212.0904 15.08834426  1305","MEAN_MOTION_DOT":"0.00016215","COUNTRY_CODE":"US","MEAN_MOTION":"15.08834426","EPOCH":"2022-08-15T22:00:00.999936","PERIAPSIS":"538.043","OBJECT_NAME":"STARLINK-3804","ECCENTRICITY":"0.00024860","REF_FRAME":"TEME","FILE":"3537378","NORAD_CAT_ID":"52270","RCS_SIZE":"LARGE","INCLINATION":"53.2189","OBJECT_TYPE":"PAYLOAD","SEMIMAJOR_AXIS":"6917.897","BSTAR":"0.00103470000000","CLASSIFICATION_TYPE":"U","MEAN_ELEMENT_THEORY":"SGP4","GP_ID":"210301847","OBJECT_ID":"2022-041K","RA_OF_ASC_NODE":"192.9916","PERIOD":"95.438","ARG_OF_PERICENTER":"56.3537","ELEMENT_SET_NO":"999","TIME_SYSTEM":"UTC","TLE_LINE1":"1 52270U 22041K   22227.91667824  .00016215  00000-0  10347-2 0  9995","EPHEMERIS_TYPE":"0","REV_AT_EPOCH":"130","MEAN_ANOMALY":"212.0904","DECAY_DATE":null,"MEAN_MOTION_DDOT":"0.0000000000000","CENTER_NAME":"EARTH","LAUNCH_DATE":"2022-04-21","SITE":"AFETR"},{"REF_FRAME":"TEME","FILE":"3537378","RCS_SIZE":"LARGE","NORAD_CAT_ID":"52271","INCLINATION":"53.2172","TLE_LINE2":"2 52271  53.2172 192.9964 0002023  57.3024 176.3308 15.08859872  1302","APOAPSIS":"541.084","COUNTRY_CODE":"US","MEAN_MOTION_DOT":"-0.00029573","MEAN_MOTION":"15.08859872","EPOCH":"2022-08-15T22:00:00.999936","PERIAPSIS":"538.285","ECCENTRICITY":"0.00020230","OBJECT_NAME":"STARLINK-3788","TLE_LINE1":"1 52271U 22041L   22227.91667824 -.00029573  00000-0 -18466-2 0  9999","EPHEMERIS_TYPE":"0","REV_AT_EPOCH":"130","MEAN_ANOMALY":"176.3308","MEAN_MOTION_DDOT":"0.0000000000000","DECAY_DATE":null,"SITE":"AFETR","CENTER_NAME":"EARTH","LAUNCH_DATE":"2022-04-21","BSTAR":"-0.00184660000000","OBJECT_TYPE":"PAYLOAD","SEMIMAJOR_AXIS":"6917.820","CLASSIFICATION_TYPE":"U","OBJECT_ID":"2022-041L","GP_ID":"210301292","MEAN_ELEMENT_THEORY":"SGP4","RA_OF_ASC_NODE":"192.9964","ARG_OF_PERICENTER":"57.3024","PERIOD":"95.436","ELEMENT_SET_NO":"999","TIME_SYSTEM":"UTC"},{"CENTER_NAME":"EARTH","LAUNCH_DATE":"2022-04-21","SITE":"AFETR","DECAY_DATE":null,"MEAN_MOTION_DDOT":"0.0000000000000","MEAN_ANOMALY":"231.7994","REV_AT_EPOCH":"130","EPHEMERIS_TYPE":"0","TLE_LINE1":"1 52272U 22041M   22227.91667824 -.00030062  00000-0 -18775-2 0  9998","TIME_SYSTEM":"UTC","ELEMENT_SET_NO":"999","PERIOD":"95.436","ARG_OF_PERICENTER":"56.6456","RA_OF_ASC_NODE":"192.9921","GP_ID":"210301301","MEAN_ELEMENT_THEORY":"SGP4","OBJECT_ID":"2022-041M","CLASSIFICATION_TYPE":"U","OBJECT_TYPE":"PAYLOAD","SEMIMAJOR_AXIS":"6917.818","BSTAR":"-0.00187750000000","INCLINATION":"53.2180","NORAD_CAT_ID":"52272","RCS_SIZE":"LARGE","FILE":"3537378","REF_FRAME":"TEME","OBJECT_NAME":"STARLINK-3781","ECCENTRICITY":"0.00020740","PERIAPSIS":"538.249","MEAN_MOTION":"15.08860257","EPOCH":"2022-08-15T22:00:00.999936","MEAN_MOTION_DOT":"-0.00030062","COUNTRY_CODE":"US","APOAPSIS":"541.118","TLE_LINE2":"2 52272  53.2180 192.9921 0002074  56.6456 231.7994 15.08860257  1308"},{"SEMIMAJOR_AXIS":"6917.877","OBJECT_TYPE":"PAYLOAD","BSTAR":"0.00030467000000","GP_ID":"210301577","MEAN_ELEMENT_THEORY":"SGP4","OBJECT_ID":"2022-041N","CLASSIFICATION_TYPE":"U","PERIOD":"95.437","ARG_OF_PERICENTER":"70.6465","RA_OF_ASC_NODE":"182.9964","TIME_SYSTEM":"UTC","ELEMENT_SET_NO":"999","TLE_LINE1":"1 52273U 22041N   22227.91667824  .00004564  00000-0  30467-3 0  9998","REV_AT_EPOCH":"130","EPHEMERIS_TYPE":"0","MEAN_ANOMALY":"192.8178","LAUNCH_DATE":"2022-04-21","CENTER_NAME":"EARTH","SITE":"AFETR","DECAY_DATE":null,"MEAN_MOTION_DDOT":"0.0000000000000","APOAPSIS":"540.813","TLE_LINE2":"2 52273  53.2157 182.9964 0001548  70.6465 192.8178 15.08841070  1303","MEAN_MOTION_DOT":"0.00004564","COUNTRY_CODE":"US","MEAN_MOTION":"15.08841070","EPOCH":"2022-08-15T22:00:00.999936","OBJECT_NAME":"STARLINK-3782","ECCENTRICITY":"0.00015480","PERIAPSIS":"538.671","REF_FRAME":"TEME","FILE":"3537378","INCLINATION":"53.2157","NORAD_CAT_ID":"52273","RCS_SIZE":"LARGE"},{"OBJECT_NAME":"STARLINK-3790","ECCENTRICITY":"0.00022530","PERIAPSIS":"538.204","EPOCH":"2022-08-15T22:00:00.999936","MEAN_MOTION":"15.08834261","MEAN_MOTION_DOT":"0.00019003","COUNTRY_CODE":"US","APOAPSIS":"541.322","TLE_LINE2":"2 52274  53.2176 192.9906 0002253  62.4344 251.2204 15.08834261  1305","INCLINATION":"53.2176","NORAD_CAT_ID":"52274","RCS_SIZE":"LARGE","FILE":"3537378","REF_FRAME":"TEME","TIME_SYSTEM":"UTC","ELEMENT_SET_NO":"999","PERIOD":"95.438","ARG_OF_PERICENTER":"62.4344","RA_OF_ASC_NODE":"192.9906","MEAN_ELEMENT_THEORY":"SGP4","GP_ID":"210301439","OBJECT_ID":"2022-041P","CLASSIFICATION_TYPE":"U","BSTAR":"0.00120900000000","OBJECT_TYPE":"PAYLOAD","SEMIMAJOR_AXIS":"6917.898","CENTER_NAME":"EARTH","LAUNCH_DATE":"2022-04-21","SITE":"AFETR","DECAY_DATE":null,"MEAN_MOTION_DDOT":"0.0000000000000","MEAN_ANOMALY":"251.2204","REV_AT_EPOCH":"130","EPHEMERIS_TYPE":"0","TLE_LINE1":"1 52274U 22041P   22227.91667824  .00019003  00000-0  12090-2 0  9994"},{"INCLINATION":"53.2190","RCS_SIZE":"LARGE","NORAD_CAT_ID":"52275","REF_FRAME":"TEME","FILE":"3537378","EPOCH":"2022-08-15T22:00:00.999936","MEAN_MOTION":"15.08820328","ECCENTRICITY":"0.00020150","OBJECT_NAME":"STARLINK-3784","PERIAPSIS":"538.412","TLE_LINE2":"2 52275  53.2190 192.9913 0002015  54.0478 219.6240 15.08820328  1308","APOAPSIS":"541.199","COUNTRY_CODE":"US","MEAN_MOTION_DOT":"0.00016548","MEAN_ANOMALY":"219.6240","SITE":"AFETR","CENTER_NAME":"EARTH","LAUNCH_DATE":"2022-04-21","MEAN_MOTION_DDOT":"0.0000000000000","DECAY_DATE":null,"TLE_LINE1":"1 52275U 22041Q   22227.91667824  .00016548  00000-0  10559-2 0  9994","REV_AT_EPOCH":"130","EPHEMERIS_TYPE":"0","ARG_OF_PERICENTER":"54.0478","PERIOD":"95.439","RA_OF_ASC_NODE":"192.9913","TIME_SYSTEM":"UTC","ELEMENT_SET_NO":"999","OBJECT_TYPE":"PAYLOAD","SEMIMAJOR_AXIS":"6917.941","BSTAR":"0.00105590000000","OBJECT_ID":"2022-041Q","MEAN_ELEMENT_THEORY":"SGP4","GP_ID":"210301702","CLASSIFICATION_TYPE":"U"},{"SITE":"AFETR","LAUNCH_DATE":"2022-04-21","CENTER_NAME":"EARTH","MEAN_MOTION_DDOT":"0.0000000000000","DECAY_DATE":null,"MEAN_ANOMALY":"277.9133","REV_AT_EPOCH":"130","EPHEMERIS_TYPE":"0","TLE_LINE1":"1 52276U 22041R   22227.91667824  .00020386  00000-0  12957-2 0  9994","TIME_SYSTEM":"UTC","ELEMENT_SET_NO":"999","ARG_OF_PERICENTER":"55.7300","PERIOD":"95.438","RA_OF_ASC_NODE":"193.0018","OBJECT_ID":"2022-041R","GP_ID":"210301711","MEAN_ELEMENT_THEORY":"SGP4","CLASSIFICATION_TYPE":"U","OBJECT_TYPE":"PAYLOAD","SEMIMAJOR_AXIS":"6917.921","BSTAR":"0.00129570000000","INCLINATION":"53.2184","RCS_SIZE":"LARGE","NORAD_CAT_ID":"52276","FILE":"3537378","REF_FRAME":"TEME","ECCENTRICITY":"0.00022970","OBJECT_NAME":"STARLINK-3778","PERIAPSIS":"538.197","MEAN_MOTION":"15.08826572","EPOCH":"2022-08-15T22:00:00.999936","COUNTRY_CODE":"US","MEAN_MOTION_DOT":"0.00020386","TLE_LINE2":"2 52276  53.2184 193.0018 0002297  55.7300 277.9133 15.08826572  1309","APOAPSIS":"541.375"}];
